<?xml version="1.0" encoding="UTF-8"?>
<kml xmlns="http://www.opengis.net/kml/2.2">
    <Document>

        <Placemark>
            <name>Sample Point</name>
            <Point>
                <coordinates>78.4000,17.5000,0</coordinates>
            </Point>
        </Placemark>

        <Placemark>
            <name>Sample Line</name>
            <LineString>
                <coordinates>
                    78.4000,17.5000,0
                    78.4100,17.5100,0
                </coordinates>
            </LineString>
        </Placemark>

        <Placemark>
            <name>Sample Polygon</name>
            <Polygon>
                <outerBoundaryIs>
                    <LinearRing>
                        <coordinates>
                            78.4000,17.5000,0
                            78.4100,17.5000,0
                            78.4100,17.5100,0
                            78.4000,17.5100,0
                            78.4000,17.5000,0
                        </coordinates>
                    </LinearRing>
                </outerBoundaryIs>
            </Polygon>
        </Placemark>

    </Document>
</kml>